{
  "type": "FeatureCollection",
  "features": [
    {
      "type": "Feature",
      "properties": {
        "norad_id": 34570,
        "name": "COSMOS 2251 DEB",
        "group": "cosmos-2251-debris",
        "lat": -70.9147451449028,
        "lon": 176.94502786920518,
        "alt_km": 1033.4879842238279,
        "timestamp": "2025-12-04T03:47:54.936692+00:00",
        "meta_object_name": "COSMOS 2251 DEB",
        "meta_object_id": "1993-036VG",
        "meta_epoch": "2025-12-03T09:54:15.253056",
        "meta_mean_motion": 13.99796062,
        "meta_eccentricity": 0.0190314,
        "meta_inclination": 73.958,
        "meta_ra_of_asc_node": 234.502,
        "meta_arg_of_pericenter": 119.0694,
        "meta_mean_anomaly": 4.9485,
        "meta_ephemeris_type": 0,
        "meta_classification_type": "U",
        "meta_norad_cat_id": 34570,
        "meta_element_set_no": 999,
        "meta_rev_at_epoch": 85470,
        "meta_bstar": 0.00063026,
        "meta_mean_motion_dot": 1.057e-05,
        "meta_mean_motion_ddot": 0,
        "tle_line1": "1 34570U 93036VG  25337.41267654  .00001057  00000+0  63026-3 0  9997",
        "tle_line2": "2 34570  73.9580 234.5020 0190314 119.0694   4.9485 13.99796062854703"
      },
      "geometry": {
        "type": "Point",
        "coordinates": [
          176.94502786920518,
          -70.9147451449028
        ]
      }
    },
    {
      "type": "Feature",
      "properties": {
        "norad_id": 34571,
        "name": "COSMOS 2251 DEB",
        "group": "cosmos-2251-debris",
        "lat": 57.198126836151935,
        "lon": -135.12821294770623,
        "alt_km": 771.5583338147535,
        "timestamp": "2025-12-04T03:47:54.936702+00:00",
        "meta_object_name": "COSMOS 2251 DEB",
        "meta_object_id": "1993-036VH",
        "meta_epoch": "2025-12-03T00:59:43.530720",
        "meta_mean_motion": 14.48571332,
        "meta_eccentricity": 0.00666537,
        "meta_inclination": 74.0399,
        "meta_ra_of_asc_node": 200.6016,
        "meta_arg_of_pericenter": 237.8665,
        "meta_mean_anomaly": 121.6017,
        "meta_ephemeris_type": 0,
        "meta_classification_type": "U",
        "meta_norad_cat_id": 34571,
        "meta_element_set_no": 999,
        "meta_rev_at_epoch": 87153,
        "meta_bstar": 0.002487781,
        "meta_mean_motion_dot": 9.601e-05,
        "meta_mean_motion_ddot": 0,
        "tle_line1": "1 34571U 93036VH  25337.04147605  .00009601  00000+0  24878-2 0  9994",
        "tle_line2": "2 34571  74.0399 200.6016 0066653 237.8665 121.6017 14.48571332871532"
      },
      "geometry": {
        "type": "Point",
        "coordinates": [
          -135.12821294770623,
          57.198126836151935
        ]
      }
    },
    {
      "type": "Feature",
      "properties": {
        "norad_id": 34572,
        "name": "COSMOS 2251 DEB",
        "group": "cosmos-2251-debris",
        "lat": -63.22975296995253,
        "lon": -13.716452732879258,
        "alt_km": 699.3393899026405,
        "timestamp": "2025-12-04T03:47:54.936712+00:00",
        "meta_object_name": "COSMOS 2251 DEB",
        "meta_object_id": "1993-036VJ",
        "meta_epoch": "2025-12-03T10:14:07.079712",
        "meta_mean_motion": 14.49672328,
        "meta_eccentricity": 0.0063987,
        "meta_inclination": 74.0096,
        "meta_ra_of_asc_node": 133.0197,
        "meta_arg_of_pericenter": 208.2005,
        "meta_mean_anomaly": 181.8869,
        "meta_ephemeris_type": 0,
        "meta_classification_type": "U",
        "meta_norad_cat_id": 34572,
        "meta_element_set_no": 999,
        "meta_rev_at_epoch": 87243,
        "meta_bstar": 0.0038394,
        "meta_mean_motion_dot": 0.00015164,
        "meta_mean_motion_ddot": 0,
        "tle_line1": "1 34572U 93036VJ  25337.42647083  .00015164  00000+0  38394-2 0  9991",
        "tle_line2": "2 34572  74.0096 133.0197 0063987 208.2005 181.8869 14.49672328872434"
      },
      "geometry": {
        "type": "Point",
        "coordinates": [
          -13.716452732879258,
          -63.22975296995253
        ]
      }
    },
    {
      "type": "Feature",
      "properties": {
        "norad_id": 34574,
        "name": "COSMOS 2251 DEB",
        "group": "cosmos-2251-debris",
        "lat": -36.2771029488378,
        "lon": -108.14568573445749,
        "alt_km": 698.3717197178039,
        "timestamp": "2025-12-04T03:47:54.936722+00:00",
        "meta_object_name": "COSMOS 2251 DEB",
        "meta_object_id": "1993-036VL",
        "meta_epoch": "2025-12-03T12:11:57.958080",
        "meta_mean_motion": 14.7042668,
        "meta_eccentricity": 0.0067074,
        "meta_inclination": 74.0699,
        "meta_ra_of_asc_node": 61.0116,
        "meta_arg_of_pericenter": 85.1692,
        "meta_mean_anomaly": 292.9619,
        "meta_ephemeris_type": 0,
        "meta_classification_type": "U",
        "meta_norad_cat_id": 34574,
        "meta_element_set_no": 999,
        "meta_rev_at_epoch": 88643,
        "meta_bstar": 0.001421,
        "meta_mean_motion_dot": 8.89e-05,
        "meta_mean_motion_ddot": 0,
        "tle_line1": "1 34574U 93036VL  25337.50830970  .00008890  00000+0  14210-2 0  9990",
        "tle_line2": "2 34574  74.0699  61.0116 0067074  85.1692 292.9619 14.70426680886435"
      },
      "geometry": {
        "type": "Point",
        "coordinates": [
          -108.14568573445749,
          -36.2771029488378
        ]
      }
    },
    {
      "type": "Feature",
      "properties": {
        "norad_id": 34576,
        "name": "COSMOS 2251 DEB",
        "group": "cosmos-2251-debris",
        "lat": -60.90243710723825,
        "lon": 123.49072239719766,
        "alt_km": 709.611979371286,
        "timestamp": "2025-12-04T03:47:54.936732+00:00",
        "meta_object_name": "COSMOS 2251 DEB",
        "meta_object_id": "1993-036VN",
        "meta_epoch": "2025-12-03T11:44:15.750816",
        "meta_mean_motion": 14.55313315,
        "meta_eccentricity": 0.0007843,
        "meta_inclination": 74.0325,
        "meta_ra_of_asc_node": 155.7197,
        "meta_arg_of_pericenter": 289.1778,
        "meta_mean_anomaly": 100.8938,
        "meta_ephemeris_type": 0,
        "meta_classification_type": "U",
        "meta_norad_cat_id": 34576,
        "meta_element_set_no": 999,
        "meta_rev_at_epoch": 88332,
        "meta_bstar": 0.0011687,
        "meta_mean_motion_dot": 5.044e-05,
        "meta_mean_motion_ddot": 0,
        "tle_line1": "1 34576U 93036VN  25337.48907119  .00005044  00000+0  11687-2 0  9992",
        "tle_line2": "2 34576  74.0325 155.7197 0007843 289.1778 100.8938 14.55313315883321"
      },
      "geometry": {
        "type": "Point",
        "coordinates": [
          123.49072239719766,
          -60.90243710723825
        ]
      }
    },
    {
      "type": "Feature",
      "properties": {
        "norad_id": 34577,
        "name": "COSMOS 2251 DEB",
        "group": "cosmos-2251-debris",
        "lat": -41.94785206389593,
        "lon": 166.91820325830344,
        "alt_km": 282.5202220910023,
        "timestamp": "2025-12-04T03:47:54.936742+00:00",
        "meta_object_name": "COSMOS 2251 DEB",
        "meta_object_id": "1993-036VP",
        "meta_epoch": "2025-12-02T20:23:47.511744",
        "meta_mean_motion": 15.92378557,
        "meta_eccentricity": 0.00061769,
        "meta_inclination": 73.987,
        "meta_ra_of_asc_node": 184.9572,
        "meta_arg_of_pericenter": 141.1239,
        "meta_mean_anomaly": 219.0441,
        "meta_ephemeris_type": 0,
        "meta_classification_type": "U",
        "meta_norad_cat_id": 34577,
        "meta_element_set_no": 999,
        "meta_rev_at_epoch": 89371,
        "meta_bstar": 0.0077782269,
        "meta_mean_motion_dot": 0.02483883,
        "meta_mean_motion_ddot": 0.0042105415,
        "tle_line1": "1 34577U 93036VP  25336.84985546  .02483883  42105-2  77782-2 0  9998",
        "tle_line2": "2 34577  73.9870 184.9572 0006176 141.1239 219.0441 15.92378557893710"
      },
      "geometry": {
        "type": "Point",
        "coordinates": [
          166.91820325830344,
          -41.94785206389593
        ]
      }
    },
    {
      "type": "Feature",
      "properties": {
        "norad_id": 34579,
        "name": "COSMOS 2251 DEB",
        "group": "cosmos-2251-debris",
        "lat": 68.70457031888691,
        "lon": 12.686234964650824,
        "alt_km": 751.7942281555406,
        "timestamp": "2025-12-04T03:47:54.936753+00:00",
        "meta_object_name": "COSMOS 2251 DEB",
        "meta_object_id": "1993-036VR",
        "meta_epoch": "2025-12-03T11:31:32.282400",
        "meta_mean_motion": 14.45261056,
        "meta_eccentricity": 0.0027515,
        "meta_inclination": 74.0537,
        "meta_ra_of_asc_node": 241.1297,
        "meta_arg_of_pericenter": 311.2529,
        "meta_mean_anomaly": 226.5032,
        "meta_ephemeris_type": 0,
        "meta_classification_type": "U",
        "meta_norad_cat_id": 34579,
        "meta_element_set_no": 999,
        "meta_rev_at_epoch": 88040,
        "meta_bstar": 0.00071878,
        "meta_mean_motion_dot": 2.507e-05,
        "meta_mean_motion_ddot": 0,
        "tle_line1": "1 34579U 93036VR  25337.48023475  .00002507  00000+0  71878-3 0  9999",
        "tle_line2": "2 34579  74.0537 241.1297 0027515 311.2529 226.5032 14.45261056880409"
      },
      "geometry": {
        "type": "Point",
        "coordinates": [
          12.686234964650824,
          68.70457031888691
        ]
      }
    }
  ]
}